{
"type": "FeatureCollection",
"name": "Camaligan_Crit_Facilities",
"crs": { "type": "name", "properties": { "name": "urn:ogc:def:crs:OGC:1.3:CRS84" } },
"features": [
{ "type": "Feature", "properties": { "amenity": "miscellaneous", "name": "Camaligan Fish Port (PFDA) office" }, "geometry": { "type": "Point", "coordinates": [ 123.1528340171282, 13.623340444105233 ] } },
{ "type": "Feature", "properties": { "amenity": "government", "name": "Dugcal Barangay Hall" }, "geometry": { "type": "Point", "coordinates": [ 123.160335926389536, 13.627380139363211 ] } },
{ "type": "Feature", "properties": { "amenity": "place_of_worship", "name": "St.Teresa of Calcuta" }, "geometry": { "type": "Point", "coordinates": [ 123.160608625870879, 13.627302607157731 ] } },
{ "type": "Feature", "properties": { "amenity": "place_of_worship", "name": "Marupit Barangay Chapel" }, "geometry": { "type": "Point", "coordinates": [ 123.166415520708924, 13.6274977744336 ] } },
{ "type": "Feature", "properties": { "amenity": "school", "name": "Petite L'e Tudiant Learning Center" }, "geometry": { "type": "Point", "coordinates": [ 123.166613361509121, 13.627508468530907 ] } },
{ "type": "Feature", "properties": { "amenity": "place_of_worship", "name": "Kingdom Hall of Jehovas" }, "geometry": { "type": "Point", "coordinates": [ 123.166976960817593, 13.626789290486965 ] } },
{ "type": "Feature", "properties": { "amenity": "place_of_worship", "name": "Jehovas Witnesses" }, "geometry": { "type": "Point", "coordinates": [ 123.167867244418431, 13.627315974779362 ] } },
{ "type": "Feature", "properties": { "amenity": "school", "name": "Rovalie Learning School" }, "geometry": { "type": "Point", "coordinates": [ 123.169318968127939, 13.627866720790708 ] } },
{ "type": "Feature", "properties": { "amenity": "evacuation_center", "name": "Marupit Main Evacuation Center" }, "geometry": { "type": "Point", "coordinates": [ 123.167057166547352, 13.625511345858689 ] } },
{ "type": "Feature", "properties": { "amenity": "place_of_worship", "name": "San Ramon Chapel" }, "geometry": { "type": "Point", "coordinates": [ 123.169217374203484, 13.62352224375946 ] } },
{ "type": "Feature", "properties": { "amenity": "hospital", "name": "San Juan San Ramon Barangay Health Center" }, "geometry": { "type": "Point", "coordinates": [ 123.169236088873774, 13.623260238375421 ] } },
{ "type": "Feature", "properties": { "amenity": "government", "name": "San Juna-San Ramon Barangay Hall" }, "geometry": { "type": "Point", "coordinates": [ 123.169345703371178, 13.623003580040036 ] } },
{ "type": "Feature", "properties": { "amenity": "place_of_worship", "name": "Our Lady of Lourdes" }, "geometry": { "type": "Point", "coordinates": [ 123.159052634712552, 13.623051703477918 ] } },
{ "type": "Feature", "properties": { "amenity": "government", "name": "San Mateo Barangay Hall" }, "geometry": { "type": "Point", "coordinates": [ 123.161506930044681, 13.622388669444844 ] } },
{ "type": "Feature", "properties": { "amenity": "government", "name": "San Mateo Barangay Hall" }, "geometry": { "type": "Point", "coordinates": [ 123.161972123277565, 13.622377975347534 ] } },
{ "type": "Feature", "properties": { "amenity": "school", "name": "United Methodist Day Care Center" }, "geometry": { "type": "Point", "coordinates": [ 123.162832998110858, 13.620343423334747 ] } },
{ "type": "Feature", "properties": { "amenity": "place_of_worship", "name": "San Mateo Barangay Chapel" }, "geometry": { "type": "Point", "coordinates": [ 123.162776854099988, 13.62058404052417 ] } },
{ "type": "Feature", "properties": { "amenity": "hospital", "name": "San Mateo Health Center (Rent)" }, "geometry": { "type": "Point", "coordinates": [ 123.16343988813307, 13.620450364307825 ] } },
{ "type": "Feature", "properties": { "amenity": "place_of_worship", "name": "Sto.Tomas Barangay Chapel" }, "geometry": { "type": "Point", "coordinates": [ 123.164180454371646, 13.621829902860515 ] } },
{ "type": "Feature", "properties": { "amenity": "government", "name": "Sto.Tomas Barangay Hall" }, "geometry": { "type": "Point", "coordinates": [ 123.164503950815202, 13.621736329509073 ] } },
{ "type": "Feature", "properties": { "amenity": "government", "name": "San Lucas Barangay Hall" }, "geometry": { "type": "Point", "coordinates": [ 123.165132229032025, 13.621950211455227 ] } },
{ "type": "Feature", "properties": { "amenity": "place_of_worship", "name": "San Pablo Chapel" }, "geometry": { "type": "Point", "coordinates": [ 123.164466521474594, 13.620025273939843 ] } },
{ "type": "Feature", "properties": { "amenity": "place_of_worship", "name": "San Jose Chapel" }, "geometry": { "type": "Point", "coordinates": [ 123.166067962546435, 13.619781983226092 ] } },
{ "type": "Feature", "properties": { "amenity": "government", "name": "San Jose-San Pablo Barangay Hall" }, "geometry": { "type": "Point", "coordinates": [ 123.166006471486909, 13.61963761291244 ] } },
{ "type": "Feature", "properties": { "amenity": "hospital", "name": "Municipal Health Office" }, "geometry": { "type": "Point", "coordinates": [ 123.168003594159131, 13.620153603107539 ] } },
{ "type": "Feature", "properties": { "amenity": "hospital", "name": "Birthing Center" }, "geometry": { "type": "Point", "coordinates": [ 123.167827141553559, 13.620191032448115 ] } },
{ "type": "Feature", "properties": { "amenity": "hospital", "name": "Municipal Nutrition Action Office" }, "geometry": { "type": "Point", "coordinates": [ 123.167819120980582, 13.620081417950711 ] } },
{ "type": "Feature", "properties": { "amenity": "place_of_worship", "name": "Sto.Domingo Barangay Chapel" }, "geometry": { "type": "Point", "coordinates": [ 123.167915367856352, 13.619918332966769 ] } },
{ "type": "Feature", "properties": { "amenity": "government", "name": "Sto.Dormingo Barangay Hall (2F)" }, "geometry": { "type": "Point", "coordinates": [ 123.16800092063481, 13.619846147809943 ] } },
{ "type": "Feature", "properties": { "amenity": "hospital", "name": "Sto.Domingo Barangay Health Center (1F)" }, "geometry": { "type": "Point", "coordinates": [ 123.168014288256444, 13.619822086091 ] } },
{ "type": "Feature", "properties": { "amenity": "place_of_worship", "name": "St.Anthony of Padua Parish Church" }, "geometry": { "type": "Point", "coordinates": [ 123.169008839306017, 13.620744451983787 ] } },
{ "type": "Feature", "properties": { "amenity": "place_of_worship", "name": "Parish Multipurpose Building" }, "geometry": { "type": "Point", "coordinates": [ 123.169324315176596, 13.62039422029696 ] } },
{ "type": "Feature", "properties": { "amenity": "police_station", "name": "Camaligan PNP Station" }, "geometry": { "type": "Point", "coordinates": [ 123.169027553976306, 13.620068050329076 ] } },
{ "type": "Feature", "properties": { "amenity": "government", "name": "Catalino Abilay Building" }, "geometry": { "type": "Point", "coordinates": [ 123.16874148687333, 13.619937047637057 ] } },
{ "type": "Feature", "properties": { "amenity": "government", "name": "Camaligan People's Plaza - Multipurpose Area" }, "geometry": { "type": "Point", "coordinates": [ 123.169014186354701, 13.619791340561241 ] } },
{ "type": "Feature", "properties": { "amenity": "government", "name": "LGU Camaligan Main Building" }, "geometry": { "type": "Point", "coordinates": [ 123.169024212070894, 13.619924348396504 ] } },
{ "type": "Feature", "properties": { "amenity": "miscellaneous", "name": "Cost Guard Outpost" }, "geometry": { "type": "Point", "coordinates": [ 123.168972746727576, 13.619081519852445 ] } },
{ "type": "Feature", "properties": { "amenity": "government", "name": "Sangguniang Bayan Building" }, "geometry": { "type": "Point", "coordinates": [ 123.168911924049141, 13.619221879879609 ] } },
{ "type": "Feature", "properties": { "amenity": "government", "name": "Municipal Social Welfare and Development Officce" }, "geometry": { "type": "Point", "coordinates": [ 123.168996808446479, 13.619485890406892 ] } },
{ "type": "Feature", "properties": { "amenity": "miscellaneous", "name": "CASURECO I Office" }, "geometry": { "type": "Point", "coordinates": [ 123.169112438373645, 13.619169746155235 ] } },
{ "type": "Feature", "properties": { "amenity": "place_of_worship", "name": "San Marcos Barangay Chapel" }, "geometry": { "type": "Point", "coordinates": [ 123.170823493942848, 13.619474527928505 ] } },
{ "type": "Feature", "properties": { "amenity": "government", "name": "San Marcos Barangay Hall (Overpass)" }, "geometry": { "type": "Point", "coordinates": [ 123.17066308248323, 13.619574785090764 ] } },
{ "type": "Feature", "properties": { "amenity": "miscellaneous", "name": "NAWASA Water Reservoir (Pumping Station)" }, "geometry": { "type": "Point", "coordinates": [ 123.17226853384156, 13.621252421605909 ] } },
{ "type": "Feature", "properties": { "amenity": "hospital", "name": "San Roque Barangay Health Station" }, "geometry": { "type": "Point", "coordinates": [ 123.172966323690886, 13.62052254946466 ] } },
{ "type": "Feature", "properties": { "amenity": "place_of_worship", "name": "San Roque Chapel" }, "geometry": { "type": "Point", "coordinates": [ 123.17410524505415, 13.621460956503409 ] } },
{ "type": "Feature", "properties": { "amenity": "government", "name": "San Roque Barangay Hall (2F)" }, "geometry": { "type": "Point", "coordinates": [ 123.174220206600211, 13.620247176458987 ] } },
{ "type": "Feature", "properties": { "amenity": "place_of_worship", "name": "Barangay Chapel" }, "geometry": { "type": "Point", "coordinates": [ 123.174811055476454, 13.621958232028218 ] } },
{ "type": "Feature", "properties": { "amenity": "fire_station", "name": "Camaligan Fire Station" }, "geometry": { "type": "Point", "coordinates": [ 123.1672308, 13.6246216 ] } },
{ "type": "Feature", "properties": { "amenity": "hospital", "name": "Dugcal Barangay Health Station" }, "geometry": { "type": "Point", "coordinates": [ 123.161025, 13.625026 ] } },
{ "type": "Feature", "properties": { "amenity": "hospital", "name": "Marupit Barangay Health Station" }, "geometry": { "type": "Point", "coordinates": [ 123.166548, 13.627749 ] } },
{ "type": "Feature", "properties": { "amenity": "miscellaneous", "name": "Municipal Materials Recovery Facility" }, "geometry": { "type": "Point", "coordinates": [ 123.14657330214483, 13.62160229257915 ] } },
{ "type": "Feature", "properties": { "amenity": "hospital", "name": "Tarosanan Barangay Health Station" }, "geometry": { "type": "Point", "coordinates": [ 123.171917, 13.616311 ] } },
{ "type": "Feature", "properties": { "amenity": "hospital", "name": "Camaligan Municipal Health Office" }, "geometry": { "type": "Point", "coordinates": [ 123.168717, 13.619472 ] } },
{ "type": "Feature", "properties": { "amenity": "school", "name": "Sua Day Care Center" }, "geometry": { "type": "Point", "coordinates": [ 123.1388570299859, 13.621227716260758 ] } },
{ "type": "Feature", "properties": { "amenity": "school", "name": "Marupit Elementary School" }, "geometry": { "type": "Point", "coordinates": [ 123.168718070943953, 13.627082658380209 ] } },
{ "type": "Feature", "properties": { "amenity": "place_of_worship", "name": "Tampac Chapel" }, "geometry": { "type": "Point", "coordinates": [ 123.147898365871171, 13.62263237745473 ] } },
{ "type": "Feature", "properties": { "amenity": "school", "name": "San Roque Elementary School" }, "geometry": { "type": "Point", "coordinates": [ 123.174026953443359, 13.620412763605511 ] } },
{ "type": "Feature", "properties": { "amenity": "school", "name": "Sua Elementary School" }, "geometry": { "type": "Point", "coordinates": [ 123.139362419302273, 13.620485601262525 ] } },
{ "type": "Feature", "properties": { "amenity": "school", "name": "Camaligan Central School" }, "geometry": { "type": "Point", "coordinates": [ 123.164772070716495, 13.621205513834806 ] } },
{ "type": "Feature", "properties": { "amenity": "school", "name": "Camaligan National High School" }, "geometry": { "type": "Point", "coordinates": [ 123.165681366069464, 13.620921086330986 ] } },
{ "type": "Feature", "properties": { "amenity": "school", "name": "Dugcal Elementary School" }, "geometry": { "type": "Point", "coordinates": [ 123.1603044169117, 13.626029332598121 ] } },
{ "type": "Feature", "properties": { "amenity": "school", "name": "Tarosanan-San Francisco Elementary School" }, "geometry": { "type": "Point", "coordinates": [ 123.17022956114333, 13.616474076244138 ] } },
{ "type": "Feature", "properties": { "amenity": "government", "name": "Sitio Tampac Multipurpose Building" }, "geometry": { "type": "Point", "coordinates": [ 123.147594022612481, 13.62263237745473 ] } },
{ "type": "Feature", "properties": { "amenity": "evacuation_center", "name": "Sua Evacuation Center" }, "geometry": { "type": "Point", "coordinates": [ 123.147608069224418, 13.622796254594027 ] } },
{ "type": "Feature", "properties": { "amenity": "evacuation_center", "name": "Sua-Sitio Tampac Day Care Center" }, "geometry": { "type": "Point", "coordinates": [ 123.147444192085118, 13.622964813937305 ] } },
{ "type": "Feature", "properties": { "amenity": "miscellaneous", "name": "Camaligan Fishing Port" }, "geometry": { "type": "Point", "coordinates": [ 123.152855727734405, 13.622625249586022 ] } },
{ "type": "Feature", "properties": { "amenity": "place_of_worship", "name": "Church of Latter Day" }, "geometry": { "type": "Point", "coordinates": [ 123.162909774963325, 13.626303559547837 ] } },
{ "type": "Feature", "properties": { "amenity": "place_of_worship", "name": "Iglesia Ni Cristo" }, "geometry": { "type": "Point", "coordinates": [ 123.155609135379549, 13.62415319550062 ] } }
]
}
